CCSDS_OMM_VERS = 2.0
CREATION_DATE  = 
ORIGINATOR     = 

OBJECT_NAME    = STARLINK-35816
OBJECT_ID      = 2025-263Q
CENTER_NAME    = EARTH
REF_FRAME      = TEME
TIME_SYSTEM    = UTC
MEAN_ELEMENT_THEORY = SGP/SGP4

EPOCH          = 2025-12-06T14:00:01.999872
MEAN_MOTION    = 15.58008439
ECCENTRICITY   = .00014152
INCLINATION    = 42.9997
RA_OF_ASC_NODE = 161.1571
ARG_OF_PERICENTER = 272.1252
MEAN_ANOMALY   = 170.0350

EPHEMERIS_TYPE = 0
CLASSIFICATION_TYPE = U
NORAD_CAT_ID   = 66499
ELEMENT_SET_NO = 999
REV_AT_EPOCH   = 464
BSTAR          = -.30780294E-1
MEAN_MOTION_DOT = -.2109495E-1
MEAN_MOTION_DDOT = 0

CCSDS_OMM_VERS = 2.0
CREATION_DATE  = 
ORIGINATOR     = 

OBJECT_NAME    = STARLINK-35894
OBJECT_ID      = 2025-263R
CENTER_NAME    = EARTH
REF_FRAME      = TEME
TIME_SYSTEM    = UTC
MEAN_ELEMENT_THEORY = SGP/SGP4

EPOCH          = 2025-12-06T14:00:01.999872
MEAN_MOTION    = 15.54009963
ECCENTRICITY   = .00018219
INCLINATION    = 42.9993
RA_OF_ASC_NODE = 161.2281
ARG_OF_PERICENTER = 264.4535
MEAN_ANOMALY   = 148.9279

EPHEMERIS_TYPE = 0
CLASSIFICATION_TYPE = U
NORAD_CAT_ID   = 66500
ELEMENT_SET_NO = 999
REV_AT_EPOCH   = 464
BSTAR          = -.4033786E-1
MEAN_MOTION_DOT = -.2346308E-1
MEAN_MOTION_DDOT = 0

CCSDS_OMM_VERS = 2.0
CREATION_DATE  = 
ORIGINATOR     = 

OBJECT_NAME    = STARLINK-35897
OBJECT_ID      = 2025-263S
CENTER_NAME    = EARTH
REF_FRAME      = TEME
TIME_SYSTEM    = UTC
MEAN_ELEMENT_THEORY = SGP/SGP4

EPOCH          = 2025-12-06T14:00:01.999872
MEAN_MOTION    = 15.58012348
ECCENTRICITY   = .0001551
INCLINATION    = 42.9997
RA_OF_ASC_NODE = 161.1521
ARG_OF_PERICENTER = 275.5969
MEAN_ANOMALY   = 168.4755

EPHEMERIS_TYPE = 0
CLASSIFICATION_TYPE = U
NORAD_CAT_ID   = 66501
ELEMENT_SET_NO = 999
REV_AT_EPOCH   = 464
BSTAR          = -.30826796E-1
MEAN_MOTION_DOT = -.2112705E-1
MEAN_MOTION_DDOT = 0

CCSDS_OMM_VERS = 2.0
CREATION_DATE  = 
ORIGINATOR     = 

OBJECT_NAME    = STARLINK-35922
OBJECT_ID      = 2025-263T
CENTER_NAME    = EARTH
REF_FRAME      = TEME
TIME_SYSTEM    = UTC
MEAN_ELEMENT_THEORY = SGP/SGP4

EPOCH          = 2025-12-06T14:00:01.999872
MEAN_MOTION    = 15.58009056
ECCENTRICITY   = .00014504
INCLINATION    = 42.9997
RA_OF_ASC_NODE = 161.1370
ARG_OF_PERICENTER = 271.2405
MEAN_ANOMALY   = 178.5870

EPHEMERIS_TYPE = 0
CLASSIFICATION_TYPE = U
NORAD_CAT_ID   = 66502
ELEMENT_SET_NO = 999
REV_AT_EPOCH   = 464
BSTAR          = -.30781996E-1
MEAN_MOTION_DOT = -.2109667E-1
MEAN_MOTION_DDOT = 0

CCSDS_OMM_VERS = 2.0
CREATION_DATE  = 
ORIGINATOR     = 

OBJECT_NAME    = STARLINK-35917
OBJECT_ID      = 2025-263U
CENTER_NAME    = EARTH
REF_FRAME      = TEME
TIME_SYSTEM    = UTC
MEAN_ELEMENT_THEORY = SGP/SGP4

EPOCH          = 2025-12-06T14:00:01.999872
MEAN_MOTION    = 15.58010186
ECCENTRICITY   = .00014173
INCLINATION    = 42.9997
RA_OF_ASC_NODE = 161.1277
ARG_OF_PERICENTER = 272.9925
MEAN_ANOMALY   = 180.6688

EPHEMERIS_TYPE = 0
CLASSIFICATION_TYPE = U
NORAD_CAT_ID   = 66503
ELEMENT_SET_NO = 999
REV_AT_EPOCH   = 464
BSTAR          = -.30820342E-1
MEAN_MOTION_DOT = -.2112064E-1
MEAN_MOTION_DDOT = 0

CCSDS_OMM_VERS = 2.0
CREATION_DATE  = 
ORIGINATOR     = 

OBJECT_NAME    = STARLINK-35916
OBJECT_ID      = 2025-263V
CENTER_NAME    = EARTH
REF_FRAME      = TEME
TIME_SYSTEM    = UTC
MEAN_ELEMENT_THEORY = SGP/SGP4

EPOCH          = 2025-12-06T14:00:01.999872
MEAN_MOTION    = 15.41759666
ECCENTRICITY   = .00018958
INCLINATION    = 42.9998
RA_OF_ASC_NODE = 162.1062
ARG_OF_PERICENTER = 246.8580
MEAN_ANOMALY   = 169.6943

EPHEMERIS_TYPE = 0
CLASSIFICATION_TYPE = U
NORAD_CAT_ID   = 66504
ELEMENT_SET_NO = 999
REV_AT_EPOCH   = 464
BSTAR          = -.37989283E-1
MEAN_MOTION_DOT = -.1486939E-1
MEAN_MOTION_DDOT = 0

CCSDS_OMM_VERS = 2.0
CREATION_DATE  = 
ORIGINATOR     = 

OBJECT_NAME    = STARLINK-34766
OBJECT_ID      = 2025-263W
CENTER_NAME    = EARTH
REF_FRAME      = TEME
TIME_SYSTEM    = UTC
MEAN_ELEMENT_THEORY = SGP/SGP4

EPOCH          = 2025-12-06T14:00:01.999872
MEAN_MOTION    = 15.58013523
ECCENTRICITY   = .00015577
INCLINATION    = 42.9997
RA_OF_ASC_NODE = 161.1467
ARG_OF_PERICENTER = 273.1753
MEAN_ANOMALY   = 172.8148

EPHEMERIS_TYPE = 0
CLASSIFICATION_TYPE = U
NORAD_CAT_ID   = 66505
ELEMENT_SET_NO = 999
REV_AT_EPOCH   = 464
BSTAR          = -.30882391E-1
MEAN_MOTION_DOT = -.2116183E-1
MEAN_MOTION_DDOT = 0

CCSDS_OMM_VERS = 2.0
CREATION_DATE  = 
ORIGINATOR     = 

OBJECT_NAME    = STARLINK-34765
OBJECT_ID      = 2025-263X
CENTER_NAME    = EARTH
REF_FRAME      = TEME
TIME_SYSTEM    = UTC
MEAN_ELEMENT_THEORY = SGP/SGP4

EPOCH          = 2025-12-06T14:00:01.999872
MEAN_MOTION    = 15.58014399
ECCENTRICITY   = .00014951
INCLINATION    = 42.9997
RA_OF_ASC_NODE = 161.1426
ARG_OF_PERICENTER = 272.5690
MEAN_ANOMALY   = 175.3379

EPHEMERIS_TYPE = 0
CLASSIFICATION_TYPE = U
NORAD_CAT_ID   = 66506
ELEMENT_SET_NO = 999
REV_AT_EPOCH   = 464
BSTAR          = -.3089658E-1
MEAN_MOTION_DOT = -.2117067E-1
MEAN_MOTION_DDOT = 0

CCSDS_OMM_VERS = 2.0
CREATION_DATE  = 
ORIGINATOR     = 

OBJECT_NAME    = STARLINK-34767
OBJECT_ID      = 2025-263Y
CENTER_NAME    = EARTH
REF_FRAME      = TEME
TIME_SYSTEM    = UTC
MEAN_ELEMENT_THEORY = SGP/SGP4

EPOCH          = 2025-12-06T14:00:01.999872
MEAN_MOTION    = 15.58010611
ECCENTRICITY   = .00014328
INCLINATION    = 42.9999
RA_OF_ASC_NODE = 161.1318
ARG_OF_PERICENTER = 272.2623
MEAN_ANOMALY   = 179.4829

EPHEMERIS_TYPE = 0
CLASSIFICATION_TYPE = U
NORAD_CAT_ID   = 66507
ELEMENT_SET_NO = 999
REV_AT_EPOCH   = 464
BSTAR          = -.30839685E-1
MEAN_MOTION_DOT = -.2113284E-1
MEAN_MOTION_DDOT = 0

CCSDS_OMM_VERS = 2.0
CREATION_DATE  = 
ORIGINATOR     = 

OBJECT_NAME    = STARLINK-35608
OBJECT_ID      = 2025-263Z
CENTER_NAME    = EARTH
REF_FRAME      = TEME
TIME_SYSTEM    = UTC
MEAN_ELEMENT_THEORY = SGP/SGP4

EPOCH          = 2025-12-06T14:00:01.999872
MEAN_MOTION    = 15.58012958
ECCENTRICITY   = .00014817
INCLINATION    = 42.9996
RA_OF_ASC_NODE = 161.1180
ARG_OF_PERICENTER = 272.6432
MEAN_ANOMALY   = 184.8498

EPHEMERIS_TYPE = 0
CLASSIFICATION_TYPE = U
NORAD_CAT_ID   = 66508
ELEMENT_SET_NO = 999
REV_AT_EPOCH   = 464
BSTAR          = -.30870125E-1
MEAN_MOTION_DOT = -.2115342E-1
MEAN_MOTION_DDOT = 0

CCSDS_OMM_VERS = 2.0
CREATION_DATE  = 
ORIGINATOR     = 

OBJECT_NAME    = STARLINK-35598
OBJECT_ID      = 2025-263AA
CENTER_NAME    = EARTH
REF_FRAME      = TEME
TIME_SYSTEM    = UTC
MEAN_ELEMENT_THEORY = SGP/SGP4

EPOCH          = 2025-12-06T14:00:01.999872
MEAN_MOTION    = 15.58008292
ECCENTRICITY   = .00014621
INCLINATION    = 42.9997
RA_OF_ASC_NODE = 161.0969
ARG_OF_PERICENTER = 272.0303
MEAN_ANOMALY   = 193.1334

EPHEMERIS_TYPE = 0
CLASSIFICATION_TYPE = U
NORAD_CAT_ID   = 66509
ELEMENT_SET_NO = 999
REV_AT_EPOCH   = 464
BSTAR          = -.30770342E-1
MEAN_MOTION_DOT = -.210891E-1
MEAN_MOTION_DDOT = 0

CCSDS_OMM_VERS = 2.0
CREATION_DATE  = 
ORIGINATOR     = 

OBJECT_NAME    = STARLINK-35600
OBJECT_ID      = 2025-263AB
CENTER_NAME    = EARTH
REF_FRAME      = TEME
TIME_SYSTEM    = UTC
MEAN_ELEMENT_THEORY = SGP/SGP4

EPOCH          = 2025-12-06T14:00:01.999872
MEAN_MOTION    = 15.58009076
ECCENTRICITY   = .00013865
INCLINATION    = 42.9996
RA_OF_ASC_NODE = 161.1118
ARG_OF_PERICENTER = 272.5397
MEAN_ANOMALY   = 186.8731

EPHEMERIS_TYPE = 0
CLASSIFICATION_TYPE = U
NORAD_CAT_ID   = 66510
ELEMENT_SET_NO = 999
REV_AT_EPOCH   = 464
BSTAR          = -.30787078E-1
MEAN_MOTION_DOT = -.2109935E-1
MEAN_MOTION_DDOT = 0

