STARLINK-35816          
1 66499U 25263Q   25340.58335648 -.02109495  00000+0 -30780-1 0  9998
2 66499  42.9997 161.1571 0001415 272.1252 170.0350 15.58008439  4643
STARLINK-35894          
1 66500U 25263R   25340.58335648 -.02346308  00000+0 -40338-1 0  9997
2 66500  42.9993 161.2281 0001821 264.4535 148.9279 15.54009963  4643
STARLINK-35897          
1 66501U 25263S   25340.58335648 -.02112705  00000+0 -30827-1 0  9992
2 66501  42.9997 161.1521 0001551 275.5969 168.4755 15.58012348  4649
STARLINK-35922          
1 66502U 25263T   25340.58335648 -.02109667  00000+0 -30782-1 0  9996
2 66502  42.9997 161.1370 0001450 271.2405 178.5870 15.58009056  4640
STARLINK-35917          
1 66503U 25263U   25340.58335648 -.02112064  00000+0 -30820-1 0  9995
2 66503  42.9997 161.1277 0001417 272.9925 180.6688 15.58010186  4642
STARLINK-35916          
1 66504U 25263V   25340.58335648 -.01486939  00000+0 -37989-1 0  9993
2 66504  42.9998 162.1062 0001895 246.8580 169.6943 15.41759666  4640
STARLINK-34766          
1 66505U 25263W   25340.58335648 -.02116183  00000+0 -30882-1 0  9991
2 66505  42.9997 161.1467 0001557 273.1753 172.8148 15.58013523  4644
STARLINK-34765          
1 66506U 25263X   25340.58335648 -.02117067  00000+0 -30897-1 0  9990
2 66506  42.9997 161.1426 0001495 272.5690 175.3379 15.58014399  4640
STARLINK-34767          
1 66507U 25263Y   25340.58335648 -.02113284  00000+0 -30840-1 0  9996
2 66507  42.9999 161.1318 0001432 272.2623 179.4829 15.58010611  4645
STARLINK-35608          
1 66508U 25263Z   25340.58335648 -.02115342  00000+0 -30870-1 0  9997
2 66508  42.9996 161.1180 0001481 272.6432 184.8498 15.58012958  4644
STARLINK-35598          
1 66509U 25263AA  25340.58335648 -.02108910  00000+0 -30770-1 0  9990
2 66509  42.9997 161.0969 0001462 272.0303 193.1334 15.58008292  4648
STARLINK-35600          
1 66510U 25263AB  25340.58335648 -.02109935  00000+0 -30787-1 0  9998
2 66510  42.9996 161.1118 0001386 272.5397 186.8731 15.58009076  4640
